{
    "links": {
        "self": "http://www.neowsapp.com/rest/v1/neo/54098015?api_key=iIulBulltgU6a56xZRHN4H3l9WmuAYTsLGpBGhQ2"
    },
    "id": "54098015",
    "neo_reference_id": "54098015",
    "name": "(2020 XG1)",
    "designation": "2020 XG1",
    "nasa_jpl_url": "http://ssd.jpl.nasa.gov/sbdb.cgi?sstr=54098015",
    "absolute_magnitude_h": 21.721,
    "estimated_diameter": {
        "kilometers": {
            "estimated_diameter_min": 0.1203247524,
            "estimated_diameter_max": 0.2690543257
        },
        "meters": {
            "estimated_diameter_min": 120.3247523812,
            "estimated_diameter_max": 269.0543257002
        },
        "miles": {
            "estimated_diameter_min": 0.0747663117,
            "estimated_diameter_max": 0.1671825554
        },
        "feet": {
            "estimated_diameter_min": 394.7662606023,
            "estimated_diameter_max": 882.7241939302
        }
    },
    "is_potentially_hazardous_asteroid": false,
    "close_approach_data": [
        {
            "close_approach_date": "2020-12-13",
            "close_approach_date_full": "2020-Dec-13 18:12",
            "epoch_date_close_approach": 1607883120000,
            "relative_velocity": {
                "kilometers_per_second": "25.4668168197",
                "kilometers_per_hour": "91680.5405510968",
                "miles_per_hour": "56966.7225440968"
            },
            "miss_distance": {
                "astronomical": "0.2323625704",
                "lunar": "90.3890398856",
                "kilometers": "34760945.599565048",
                "miles": "21599450.0157637424"
            },
            "orbiting_body": "Earth"
        },
        {
            "close_approach_date": "2021-06-01",
            "close_approach_date_full": "2021-Jun-01 12:14",
            "epoch_date_close_approach": 1622549640000,
            "relative_velocity": {
                "kilometers_per_second": "24.9424014758",
                "kilometers_per_hour": "89792.645312704",
                "miles_per_hour": "55793.6578611076"
            },
            "miss_distance": {
                "astronomical": "0.2280610807",
                "lunar": "88.7157603923",
                "kilometers": "34117451.902618109",
                "miles": "21199601.5736995442"
            },
            "orbiting_body": "Earth"
        }
    ],
    "orbital_data": {
        "orbit_id": "1",
        "orbit_determination_date": "2020-12-07 08:42:02",
        "first_observation_date": "2020-12-05",
        "last_observation_date": "2020-12-07",
        "data_arc_in_days": 2,
        "observations_used": 27,
        "orbit_uncertainty": "9",
        "minimum_orbit_intersection": ".11226",
        "jupiter_tisserand_invariant": "4.623",
        "epoch_osculation": "2459189.5",
        "eccentricity": ".3002345692149769",
        "semi_major_axis": "1.292980937689614",
        "inclination": "50.98913499449798",
        "ascending_node_longitude": "77.15424496698897",
        "orbital_period": "537.0152392044613",
        "perihelion_distance": ".9047833628591956",
        "perihelion_argument": "97.07770200690601",
        "aphelion_distance": "1.681178512520031",
        "perihelion_time": "2459287.105322517228",
        "mean_anomaly": "294.5681210867392",
        "mean_motion": ".6703720373621184",
        "equinox": "J2000",
        "orbit_class": {
            "orbit_class_type": "APO",
            "orbit_class_description": "Near-Earth asteroid orbits which cross the Earth’s orbit similar to that of 1862 Apollo",
            "orbit_class_range": "a (semi-major axis) > 1.0 AU; q (perihelion) < 1.017 AU"
        }
    },
    "is_sentry_object": false
}